ORBCOMM FM20            
1 25416U 98046D   25068.84656537  .00001635  00000+0  59545-3 0  9995
2 25416  44.9940 291.6250 0000932 104.4703 255.6248 14.36858962389978
ORBCOMM FM16            
1 25417U 98046E   25068.88713177  .00002308  00000+0  79571-3 0  9993
2 25417  44.9928 284.2678 0004608 149.5486 210.5631 14.38414059389950
ORBCOMM FM15            
1 25418U 98046F   25068.00558895  .00002072  00000+0  72398-3 0  9990
2 25418  44.9965 293.3020 0004049 144.3503 215.7616 14.38078937389823
ORBCOMM FM14            
1 25419U 98046G   25068.88106536  .00002315  00000+0  79818-3 0  9992
2 25419  44.9954 287.6621 0003143 138.7675 221.3411 14.38405747389915
ORBCOMM FM13            
1 25420U 98046H   25068.70321133  .00001946  00000+0  69409-3 0  9991
2 25420  44.9974 295.5452 0005047 130.4341 229.6948 14.37270576388928
ORBCOMM FM21            
1 25475U 98053A   25068.89698242  .00002289  00000+0  81259-3 0  9995
2 25475  45.0093  19.5962 0001575 358.9815   1.1030 14.36997021382960
ORBCOMM FM22            
1 25476U 98053B   25068.93348608  .00002483  00000+0  86132-3 0  9990
2 25476  45.0087  15.0438 0002679  44.9647 315.1418 14.37919310382980
ORBCOMM FM23            
1 25477U 98053C   25068.83970370  .00002397  00000+0  84603-3 0  9992
2 25477  45.0092  22.1179 0002090  25.5771 334.5180 14.37136892383100
